satname,norad_id,inclination_deg,eccentricity,mean_motion_rev_per_day,perigee_km,apogee_km,l1,l2
STARLINK-1234,45190,53.0332,0.0001469,15.81853779,324.2136899483612,326.18312989179594,1 45190U 20012N   26178.00003472  .00048756  00000+0  23812-3 0  9992,2 45190  53.0332 144.4861 0001469 116.1820 279.0276 15.81853779  6018
STARLINK-1269,45197,53.1555,0.0002596,15.3662169,454.33369670336924,457.8820366381442,1 45197U 20012V   26177.92257765  .00046137  00000+0  12745-2 0  9998,2 45197  53.1555 250.4343 0002596 351.2127   8.8830 15.36621690351663
STARLINK-1154,45198,53.0392,0.0003917,15.65183285,370.06737845443877,375.35599331495996,1 45198U 20012W   26177.37595410  .00041635  00000+0  41638-3 0  9992,2 45198  53.0392 203.8109 0003917  35.8724 324.2552 15.65183285352213
STARLINK-1199,45201,53.1558,0.0004827,15.36589671,452.9038704954164,459.50174214443814,1 45201U 20012Z   26177.89362638  .00040813  00000+0  11304-2 0  9991,2 45201  53.1558 234.8379 0004827 350.6143   9.4770 15.36589671351906
STARLINK-1209,45206,53.0352,0.0001405,15.72508296,350.78542905216545,352.67652195328264,1 45206U 20012AE  26178.00003472 -.00031416  00000+0 -22685-3 0  9994,2 45206  53.0352 160.4698 0001405 105.9131 260.8901 15.72508296  5928
STARLINK-1231,45212,53.0357,0.0002289,15.28987206,477.26908536469637,480.4082088159339,1 45212U 20012AL  26177.57701789  .00031977  00000+0  11282-2 0  9998,2 45212  53.0357 232.3505 0002289  65.9467 294.1771 15.28987206351847
STARLINK-1271,45217,53.1559,0.0004417,15.36738173,452.7439769189514,458.7810437463804,1 45217U 20012AR  26177.56369959  .00036509  00000+0  10081-2 0  9993,2 45217  53.1559 236.4830 0004417 355.0333   5.0626 15.36738173351858
STARLINK-1191,45222,53.1533,0.0003543,15.40903761,441.0238299431239,445.85759991192117,1 45222U 20012AW  26177.81864517  .00047966  00000+0  11517-2 0  9991,2 45222  53.1533 207.7348 0003543 334.2253  25.8575 15.40903761352283
STARLINK-1212,45223,53.0375,0.0001535,15.7123805,354.3240089410756,356.3911917833857,1 45223U 20012AX  26177.94067209  .00065851  00000+0  51049-3 0  9997,2 45223  53.0375 176.2343 0001535  91.8519 268.2674 15.71238050352719
STARLINK-1215,45225,53.154,0.0005255,15.36856137,451.8217770681895,459.0038379158632,1 45225U 20012AZ  26177.36619169  .00036085  00000+0  99271-3 0  9999,2 45225  53.1540 211.6573 0005255 354.0432   6.0508 15.36856137352140
STARLINK-1221,45227,53.0643,0.0003376,15.45558668,427.43869300967526,432.03536955559775,1 45227U 20012BB  26177.80586607  .00056830  00000+0  11640-2 0  9993,2 45227  53.0643 111.1238 0003376  24.2031 335.9134 15.45558668353564
STARLINK-1222,45228,53.0503,0.0003748,15.56525045,395.1835393384199,400.26272409315334,1 45228U 20012BC  26177.70850220  .00025880  00000+0  36396-3 0  9995,2 45228  53.0503 177.4423 0003748  51.3147 308.8198 15.56525045352566
STARLINK-1226,45229,53.1535,0.000548,15.46081239,424.4730427195245,431.9327912685494,1 45229U 20012BD  26177.35124227  .00049358  00000+0  99486-3 0  9993,2 45229  53.1535 206.5739 0005480 354.6939   5.4009 15.46081239352157
STARLINK-1227,45230,53.1515,0.0005279,15.46173604,424.3389267284856,431.52477422081756,1 45230U 20012BE  26177.35991612  .00050411  00000+0  10126-2 0  9990,2 45230  53.1515 206.6243 0005279 348.3942  11.6944 15.46173604352276
STARLINK-1246,45235,53.1559,0.0004055,15.36781826,452.86200255738004,458.4041901055052,1 45235U 20012BK  26177.92844814  .00042845  00000+0  11787-2 0  9995,2 45235  53.1559 250.0259 0004055 319.9770  40.0934 15.36781826351727
STARLINK-1270,45237,53.0374,0.0001688,15.70356061,356.74156557101014,359.01564443925963,1 45237U 20012BM  26178.00003472 -.00030811  00000+0 -24365-3 0  9993,2 45237  53.0374 177.7517 0001688 103.4396 301.5851 15.70356061  5966
STARLINK-1279,45360,53.0345,0.0002304,15.82675296,321.33463473810116,324.4224627029507,1 45360U 20019A   26177.82709470  .00133924  00000+0  61758-3 0  9991,2 45360  53.0345 279.9218 0002304 353.1782   6.9208 15.82675296347804
STARLINK-1301,45361,53.0332,0.0004136,15.8427143,315.6073205556977,321.14667693545925,1 45361U 20019B   26177.69840283  .00118620  00000+0  50837-3 0  9997,2 45361  53.0332 282.6924 0004136 349.8253  10.2685 15.84271430347762
STARLINK-1262,45366,53.154,0.0003175,15.35699382,456.6731849967855,461.01466788507423,1 45366U 20019G   26177.84694444  .00052950  00000+0  15036-2 0  9999,2 45366  53.1540  16.9941 0003175 154.2953 205.8209 15.35699382346481
STARLINK-1273,45367,53.0451,0.0001973,15.59669193,387.2786536772346,389.9488135167121,1 45367U 20019H   26177.86759587  .00098732  00000+0  12060-2 0  9994,2 45367  53.0451 349.1694 0001973 131.8473 228.2708 15.59669193346857
STARLINK-1277,45369,53.0417,5.55e-05,15.68965458,361.484117400234,362.2322568660056,1 45369U 20019K   26177.85019367  .00059563  00000+0  50826-3 0  9992,2 45369  53.0417 342.1559 0000555  49.4293 310.6771 15.68965458346953
STARLINK-1281,45370,53.1573,0.0003556,15.36509068,454.0114409285179,458.8721933832785,1 45370U 20019L   26177.84809170  .00057116  00000+0  15786-2 0  9999,2 45370  53.1573  16.5099 0003556 135.4130 224.7160 15.36509068346492
STARLINK-1300,45374,53.1575,0.000322,15.3711533,452.4444344446183,456.8447457886532,1 45374U 20019Q   26177.91831524  .00053239  00000+0  14445-2 0  9992,2 45374  53.1575  16.0116 0003220 151.1462 208.9721 15.37115330346509
STARLINK-1302,45375,53.0448,0.0002829,15.69248054,359.142471602544,362.95550303416803,1 45375U 20019R   26177.82260296  .00057682  00000+0  48673-3 0  9992,2 45375  53.0448 338.1120 0002829 121.9752 238.1540 15.69248054347007
STARLINK-1304,45376,53.0417,0.0002438,15.65209543,370.9903455510721,374.282022555617,1 45376U 20019S   26177.74629865  .00047701  00000+0  47548-3 0  9996,2 45376  53.0417 340.3651 0002438 146.0356 214.0815 15.65209543346960
STARLINK-1305,45377,53.0386,0.0004264,15.73968378,344.70054414625884,350.4362256985205,1 45377U 20019T   26177.78756838  .00081830  00000+0  56264-3 0  9998,2 45377  53.0386 317.5010 0004264 315.8117  44.2560 15.73968378347295
STARLINK-1319,45379,53.0364,0.0001086,15.80983385,326.93023601217647,328.3867347916048,1 45379U 20019V   26177.93189809  .00106879  00000+0  53556-3 0  9997,2 45379  53.0364 307.5817 0001086  14.5930 345.5122 15.80983385347443
STARLINK-1266,45383,53.0451,0.0001678,15.67600059,364.63973737479955,366.90299302216135,1 45383U 20019Z   26177.79581761  .00048892  00000+0  44260-3 0  9991,2 45383  53.0451 324.7316 0001678 316.0905  43.9977 15.67600059347186
STARLINK-1267,45384,53.0423,0.0001049,15.71849026,352.90645877064617,354.3187798407753,1 45384U 20019AA  26178.00003472 -.00065583  00000+0 -49415-3 0  9990,2 45384  53.0423 314.8273 0001049  68.6492 244.2810 15.71849026  5975
STARLINK-1272,45386,53.0382,0.0001292,15.76348226,339.9292960916773,341.6654687360924,1 45386U 20019AC  26178.00003472  .00019904  00000+0  12741-3 0  9998,2 45386  53.0382 292.9971 0001292  56.7273  70.4729 15.76348226  5987
STARLINK-1274,45387,53.0185,0.0004935,15.65228879,369.2491078500316,375.9120661083798,1 45387U 20019AD  26177.72202741  .00114382  00000+0  11220-2 0  9993,2 45387  53.0185 294.6918 0004935 244.7907 115.2596 15.65228879347594
STARLINK-1280,45388,53.0341,0.000389,15.86843928,308.53558438622895,313.73984011235916,1 45388U 20019AE  26177.74603271  .00141107  00000+0  53226-3 0  9997,2 45388  53.0341 300.0614 0003890 345.7387  14.3526 15.86843928347512
STARLINK-1283,45389,53.0384,0.0002216,15.73938959,346.1617579931635,349.1426277634473,1 45389U 20019AF  26177.72938398  .00067757  00000+0  46814-3 0  9990,2 45389  53.0384 293.2942 0002216 296.1821  63.8969 15.73938959347627
STARLINK-1284,45390,53.0404,0.0003142,15.72182315,350.5463872463506,354.7760208377704,1 45390U 20019AG  26177.76765538  .00061041  00000+0  45529-3 0  9992,2 45390  53.0404 317.2307 0003142  58.2617 301.8707 15.72182315347286
STARLINK-1297,45395,53.0406,9.95e-05,15.75022667,343.8977715852225,345.2355896176614,1 45395U 20019AM  26178.00003472  .00012158  00000+0  84133-4 0  9997,2 45395  53.0406 315.1396 0000995  30.5322 110.0762 15.75022667  5937
STARLINK-1307,45397,53.0523,1.31e-05,15.5796713,393.4525312054693,393.62994917536344,1 45397U 20019AP  26177.81048009  .00043198  00000+0  57030-3 0  9995,2 45397  53.0523 323.8814 0000131 245.7917 114.3080 15.57967130347024
STARLINK-1255,45399,53.0334,0.0001576,15.6755432,364.83968901447497,366.96541028052434,1 45399U 20019AR  26177.73683135  .00047410  00000+0  43021-3 0  9999,2 45399  53.0334 290.7780 0001576 181.9950 178.1060 15.67554320347460
STARLINK-1260,45404,53.1565,0.0003329,15.39672079,444.80612626952734,449.3503545766016,1 45404U 20019AW  26177.85284430  .00063409  00000+0  15792-2 0  9993,2 45404  53.1565 338.7750 0003329 157.6349 202.4802 15.39672079346739
STARLINK-1263,45405,53.1568,0.0001937,15.3674922,454.40603974571513,457.0534797284381,1 45405U 20019AX  26177.85977943  .00061633  00000+0  16887-2 0  9995,2 45405  53.1568 340.4052 0001937 193.8004 166.2947 15.36749220346716
STARLINK-1265,45406,53.1564,0.0001441,15.40072153,444.9128273450733,446.87951370481824,1 45406U 20019AY  26177.84100763  .00056706  00000+0  13962-2 0  9999,2 45406  53.1564 338.7747 0001441 143.1272 216.9833 15.40072153346737
STARLINK-1278,45408,53.0392,0.0001561,15.76002182,340.73188827428294,342.8298466325032,1 45408U 20019BA  26178.00003472  .00013087  00000+0  86512-4 0  9997,2 45408  53.0392 313.9240 0001561  47.7808  14.1679 15.76002182  5986
STARLINK-1296,45412,53.1547,0.0002343,15.40264855,443.7282527664547,446.92572799234676,1 45412U 20019BE  26177.87829742  .00055225  00000+0  13516-2 0  9994,2 45412  53.1547 338.2643 0002343 139.2101 220.9080 15.40264855346746
STARLINK-1309,45414,53.0593,0.0001399,15.74623822,344.7611876552337,346.6425177662213,1 45414U 20019BG  26178.00003472  .00000973  00000+0  10769-4 0  9995,2 45414  53.0593 308.0763 0001399  42.2733 184.6455 15.74623822  5878
